{
    "links": {
        "self": "http://www.neowsapp.com/rest/v1/neo/3740021?api_key=iIulBulltgU6a56xZRHN4H3l9WmuAYTsLGpBGhQ2"
    },
    "id": "3740021",
    "neo_reference_id": "3740021",
    "name": "(2016 AV164)",
    "designation": "2016 AV164",
    "nasa_jpl_url": "http://ssd.jpl.nasa.gov/sbdb.cgi?sstr=3740021",
    "absolute_magnitude_h": 24.9,
    "estimated_diameter": {
        "kilometers": {
            "estimated_diameter_min": 0.0278326768,
            "estimated_diameter_max": 0.0622357573
        },
        "meters": {
            "estimated_diameter_min": 27.8326768072,
            "estimated_diameter_max": 62.2357573367
        },
        "miles": {
            "estimated_diameter_min": 0.0172944182,
            "estimated_diameter_max": 0.0386714948
        },
        "feet": {
            "estimated_diameter_min": 91.3145593761,
            "estimated_diameter_max": 204.1855621004
        }
    },
    "is_potentially_hazardous_asteroid": false,
    "close_approach_data": [
        {
            "close_approach_date": "2016-01-04",
            "close_approach_date_full": "2016-Jan-04 19:26",
            "epoch_date_close_approach": 1451935560000,
            "relative_velocity": {
                "kilometers_per_second": "7.6326629462",
                "kilometers_per_hour": "27477.5866063161",
                "miles_per_hour": "17073.5037443524"
            },
            "miss_distance": {
                "astronomical": "0.0386683952",
                "lunar": "15.0420057328",
                "kilometers": "5784709.558238224",
                "miles": "3594451.8425425312"
            },
            "orbiting_body": "Earth"
        },
        {
            "close_approach_date": "2077-02-14",
            "close_approach_date_full": "2077-Feb-14 07:08",
            "epoch_date_close_approach": 3380512080000,
            "relative_velocity": {
                "kilometers_per_second": "21.4574147055",
                "kilometers_per_hour": "77246.6929397816",
                "miles_per_hour": "47998.0909547215"
            },
            "miss_distance": {
                "astronomical": "0.4850995355",
                "lunar": "188.7037193095",
                "kilometers": "72569857.248789385",
                "miles": "45092818.312628113"
            },
            "orbiting_body": "Earth"
        },
        {
            "close_approach_date": "2130-11-02",
            "close_approach_date_full": "2130-Nov-02 02:13",
            "epoch_date_close_approach": 5075489580000,
            "relative_velocity": {
                "kilometers_per_second": "18.6590307446",
                "kilometers_per_hour": "67172.5106806709",
                "miles_per_hour": "41738.3858726646"
            },
            "miss_distance": {
                "astronomical": "0.3778012566",
                "lunar": "146.9646888174",
                "kilometers": "56518263.270683442",
                "miles": "35118820.3150658196"
            },
            "orbiting_body": "Earth"
        }
    ],
    "orbital_data": {
        "orbit_id": "12",
        "orbit_determination_date": "2017-04-06 08:29:12",
        "first_observation_date": "2016-01-13",
        "last_observation_date": "2016-02-15",
        "data_arc_in_days": 33,
        "observations_used": 62,
        "orbit_uncertainty": "7",
        "minimum_orbit_intersection": ".0286064",
        "jupiter_tisserand_invariant": "3.320",
        "epoch_osculation": "2459000.5",
        "eccentricity": ".5714139902118215",
        "semi_major_axis": "2.344154026534567",
        "inclination": "2.551395680680572",
        "ascending_node_longitude": "297.0477214853767",
        "orbital_period": "1310.924389048233",
        "perihelion_distance": "1.004671620561342",
        "perihelion_argument": "152.1087543620075",
        "aphelion_distance": "3.683636432507792",
        "perihelion_time": "2458691.779536283569",
        "mean_anomaly": "84.77938763394687",
        "mean_motion": ".2746153805723074",
        "equinox": "J2000",
        "orbit_class": {
            "orbit_class_type": "APO",
            "orbit_class_description": "Near-Earth asteroid orbits which cross the Earth’s orbit similar to that of 1862 Apollo",
            "orbit_class_range": "a (semi-major axis) > 1.0 AU; q (perihelion) < 1.017 AU"
        }
    },
    "is_sentry_object": false
}